STARLINK-3923           
1 52489U 22049AQ  26068.35589252 -.00000639  00000+0 -22038-4 0  9994
2 52489  53.2172  60.6182 0001534  73.9750 286.1411 15.08836628212204
LEMUR-2-UNTITLED-SC     
1 63351U 25061A   26068.89211098  .00005783  00000+0  33296-3 0  9990
2 63351  97.5556  45.0864 0017373 245.6030 114.3388 15.12695529 52577
