[{"OBJECT_NAME":"STARLINK-3923","OBJECT_ID":"2022-049AQ","EPOCH":"2026-03-09T08:32:29.113728","MEAN_MOTION":15.08836628,"ECCENTRICITY":0.00015344,"INCLINATION":53.2172,"RA_OF_ASC_NODE":60.6182,"ARG_OF_PERICENTER":73.975,"MEAN_ANOMALY":286.1411,"EPHEMERIS_TYPE":0,"CLASSIFICATION_TYPE":"U","NORAD_CAT_ID":52489,"ELEMENT_SET_NO":999,"REV_AT_EPOCH":21220,"BSTAR":-2.2038283e-5,"MEAN_MOTION_DOT":-6.39e-6,"MEAN_MOTION_DDOT":0},{"OBJECT_NAME":"LEMUR-2-UNTITLED-SC","OBJECT_ID":"2025-061A","EPOCH":"2026-03-09T21:24:38.388672","MEAN_MOTION":15.12695529,"ECCENTRICITY":0.00173727,"INCLINATION":97.5556,"RA_OF_ASC_NODE":45.0864,"ARG_OF_PERICENTER":245.603,"MEAN_ANOMALY":114.3388,"EPHEMERIS_TYPE":0,"CLASSIFICATION_TYPE":"U","NORAD_CAT_ID":63351,"ELEMENT_SET_NO":999,"REV_AT_EPOCH":5257,"BSTAR":0.00033295729,"MEAN_MOTION_DOT":5.783e-5,"MEAN_MOTION_DDOT":0}]
